start=new Date('2022-01-18T00:00:00.000Z').valueOf();
sats=[{"TLE_LINE2":"2 47629  53.0538 258.2220 0002696  58.2282 152.9457 15.06369191 53298","GP_ID":"194061026","SITE":"AFETR","PERIOD":"95.594","ELEMENT_SET_NO":"999","INCLINATION":"53.0538","LAUNCH_DATE":"2021-02-16","EPHEMERIS_TYPE":"0","MEAN_ELEMENT_THEORY":"SGP4","OBJECT_ID":"2021-012K","MEAN_MOTION_DDOT":"0.0000000000000","MEAN_MOTION_DOT":"-0.00012476","TLE_LINE1":"1 47629U 21012K   22017.91667824 -.00012476  00000-0 -82072-3 0  9993","REV_AT_EPOCH":"5329","COUNTRY_CODE":"US","OBJECT_NAME":"STARLINK-1974","MEAN_ANOMALY":"152.9457","RCS_SIZE":"LARGE","CLASSIFICATION_TYPE":"U","REF_FRAME":"TEME","APOAPSIS":"549.175","FILE":"3275829","MEAN_MOTION":"15.06369191","TIME_SYSTEM":"UTC","ECCENTRICITY":"0.00026960","ARG_OF_PERICENTER":"58.2282","RA_OF_ASC_NODE":"258.2220","CENTER_NAME":"EARTH","BSTAR":"-0.00082072000000","SEMIMAJOR_AXIS":"6925.443","OBJECT_TYPE":"PAYLOAD","PERIAPSIS":"545.441","DECAY_DATE":null,"NORAD_CAT_ID":"47629","EPOCH":"2022-01-17T22:00:00.999936"},{"NORAD_CAT_ID":"47630","EPOCH":"2022-01-17T08:42:12.156480","DECAY_DATE":null,"PERIAPSIS":"546.063","OBJECT_TYPE":"PAYLOAD","SEMIMAJOR_AXIS":"6925.386","BSTAR":"-0.00034210000000","CENTER_NAME":"EARTH","RA_OF_ASC_NODE":"0.7118","ARG_OF_PERICENTER":"61.1904","ECCENTRICITY":"0.00017160","TIME_SYSTEM":"UTC","MEAN_MOTION":"15.06387808","FILE":"3275754","APOAPSIS":"548.439","REF_FRAME":"TEME","CLASSIFICATION_TYPE":"U","MEAN_ANOMALY":"298.9257","RCS_SIZE":"LARGE","OBJECT_NAME":"STARLINK-1983","COUNTRY_CODE":"US","REV_AT_EPOCH":"5230","TLE_LINE1":"1 47630U 21012L   22017.36264070 -.00005372  00000-0 -34210-3 0  9998","MEAN_MOTION_DOT":"-0.00005372","MEAN_MOTION_DDOT":"0.0000000000000","OBJECT_ID":"2021-012L","LAUNCH_DATE":"2021-02-16","EPHEMERIS_TYPE":"0","MEAN_ELEMENT_THEORY":"SGP4","PERIOD":"95.593","ELEMENT_SET_NO":"999","INCLINATION":"53.0572","SITE":"AFETR","GP_ID":"194056663","TLE_LINE2":"2 47630  53.0572   0.7118 0001716  61.1904 298.9257 15.06387808 52305"},{"TLE_LINE2":"2 47631  53.0355 234.6543 0001160 130.3911 232.6918 15.78198392 53616","GP_ID":"194061044","ELEMENT_SET_NO":"999","PERIOD":"91.243","INCLINATION":"53.0355","SITE":"AFETR","MEAN_MOTION_DDOT":"0.0000000000000","MEAN_MOTION_DOT":"0.00079876","MEAN_ELEMENT_THEORY":"SGP4","LAUNCH_DATE":"2021-02-16","EPHEMERIS_TYPE":"0","OBJECT_ID":"2021-012M","TLE_LINE1":"1 47631U 21012M   22017.91667824  .00079876  00000-0  45658-3 0  9990","REV_AT_EPOCH":"5361","COUNTRY_CODE":"US","OBJECT_NAME":"STARLINK-1985","REF_FRAME":"TEME","RCS_SIZE":"LARGE","MEAN_ANOMALY":"232.6918","CLASSIFICATION_TYPE":"U","APOAPSIS":"336.326","MEAN_MOTION":"15.78198392","FILE":"3275830","TIME_SYSTEM":"UTC","ARG_OF_PERICENTER":"130.3911","RA_OF_ASC_NODE":"234.6543","CENTER_NAME":"EARTH","ECCENTRICITY":"0.00011600","SEMIMAJOR_AXIS":"6713.682","OBJECT_TYPE":"PAYLOAD","BSTAR":"0.00045658000000","PERIAPSIS":"334.768","DECAY_DATE":null,"NORAD_CAT_ID":"47631","EPOCH":"2022-01-17T22:00:00.999936"},{"MEAN_MOTION":"15.06375639","FILE":"3276075","TIME_SYSTEM":"UTC","CENTER_NAME":"EARTH","RA_OF_ASC_NODE":"283.2310","ARG_OF_PERICENTER":"68.1737","ECCENTRICITY":"0.00014760","OBJECT_TYPE":"PAYLOAD","SEMIMAJOR_AXIS":"6925.423","BSTAR":"-0.00154680000000","PERIAPSIS":"546.266","DECAY_DATE":null,"EPOCH":"2022-01-17T22:00:00.999936","NORAD_CAT_ID":"47632","GP_ID":"194088016","TLE_LINE2":"2 47632  53.0568 283.2310 0001476  68.1737  50.6377 15.06375639  3590","PERIOD":"95.594","ELEMENT_SET_NO":"999","INCLINATION":"53.0568","SITE":"AFETR","MEAN_MOTION_DOT":"-0.00023231","MEAN_MOTION_DDOT":"0.0000000000000","OBJECT_ID":"2021-012N","EPHEMERIS_TYPE":"0","LAUNCH_DATE":"2021-02-16","MEAN_ELEMENT_THEORY":"SGP4","TLE_LINE1":"1 47632U 21012N   22017.91667824 -.00023231  00000-0 -15468-2 0  9992","REV_AT_EPOCH":"359","COUNTRY_CODE":"US","OBJECT_NAME":"STARLINK-1992","REF_FRAME":"TEME","CLASSIFICATION_TYPE":"U","MEAN_ANOMALY":"50.6377","RCS_SIZE":"LARGE","APOAPSIS":"548.310"},{"COUNTRY_CODE":"US","OBJECT_NAME":"STARLINK-2009","REF_FRAME":"TEME","MEAN_ANOMALY":"295.8754","RCS_SIZE":"LARGE","CLASSIFICATION_TYPE":"U","APOAPSIS":"548.408","TLE_LINE2":"2 47633  53.0552  19.1482 0001657  64.2406 295.8754 15.06384612 52116","GP_ID":"194088267","PERIOD":"95.593","ELEMENT_SET_NO":"999","INCLINATION":"53.0552","SITE":"AFETR","MEAN_MOTION_DDOT":"0.0000000000000","MEAN_MOTION_DOT":"-0.00003141","LAUNCH_DATE":"2021-02-16","EPHEMERIS_TYPE":"0","MEAN_ELEMENT_THEORY":"SGP4","OBJECT_ID":"2021-012P","REV_AT_EPOCH":"5211","TLE_LINE1":"1 47633U 21012P   22017.71192230 -.00003141  00000-0 -19212-3 0  9995","SEMIMAJOR_AXIS":"6925.396","OBJECT_TYPE":"PAYLOAD","BSTAR":"-0.00019212000000","PERIAPSIS":"546.113","DECAY_DATE":null,"EPOCH":"2022-01-17T17:05:10.086720","NORAD_CAT_ID":"47633","MEAN_MOTION":"15.06384612","FILE":"3276075","TIME_SYSTEM":"UTC","RA_OF_ASC_NODE":"19.1482","ARG_OF_PERICENTER":"64.2406","CENTER_NAME":"EARTH","ECCENTRICITY":"0.00016570"},{"NORAD_CAT_ID":"47634","EPOCH":"2022-01-17T16:33:18.139392","DECAY_DATE":null,"PERIAPSIS":"546.439","OBJECT_TYPE":"PAYLOAD","SEMIMAJOR_AXIS":"6925.384","BSTAR":"-0.00031943000000","CENTER_NAME":"EARTH","RA_OF_ASC_NODE":"19.2527","ARG_OF_PERICENTER":"70.8206","ECCENTRICITY":"0.00011690","TIME_SYSTEM":"UTC","MEAN_MOTION":"15.06388551","FILE":"3276075","APOAPSIS":"548.058","REF_FRAME":"TEME","CLASSIFICATION_TYPE":"U","RCS_SIZE":"LARGE","MEAN_ANOMALY":"289.2909","OBJECT_NAME":"STARLINK-2010","COUNTRY_CODE":"US","TLE_LINE1":"1 47634U 21012Q   22017.68979328 -.00005034  00000-0 -31943-3 0  9991","REV_AT_EPOCH":"5208","MEAN_MOTION_DOT":"-0.00005034","MEAN_MOTION_DDOT":"0.0000000000000","OBJECT_ID":"2021-012Q","EPHEMERIS_TYPE":"0","LAUNCH_DATE":"2021-02-16","MEAN_ELEMENT_THEORY":"SGP4","PERIOD":"95.593","ELEMENT_SET_NO":"999","INCLINATION":"53.0559","SITE":"AFETR","GP_ID":"194089017","TLE_LINE2":"2 47634  53.0559  19.2527 0001169  70.8206 289.2909 15.06388551 52085"},{"APOAPSIS":"546.242","CLASSIFICATION_TYPE":"U","RCS_SIZE":"LARGE","MEAN_ANOMALY":"254.1905","REF_FRAME":"TEME","OBJECT_NAME":"STARLINK-2012","COUNTRY_CODE":"US","TLE_LINE1":"1 47635U 21012R   22017.91667824 -.00030590  00000-0 -19993-2 0  9998","REV_AT_EPOCH":"358","OBJECT_ID":"2021-012R","EPHEMERIS_TYPE":"0","LAUNCH_DATE":"2021-02-16","MEAN_ELEMENT_THEORY":"SGP4","MEAN_MOTION_DOT":"-0.00030590","MEAN_MOTION_DDOT":"0.0000000000000","SITE":"AFETR","PERIOD":"95.541","ELEMENT_SET_NO":"999","INCLINATION":"53.0548","GP_ID":"194087266","TLE_LINE2":"2 47635  53.0548 283.2241 0002156  66.0775 254.1905 15.07204356  3584","NORAD_CAT_ID":"47635","EPOCH":"2022-01-17T22:00:00.999936","DECAY_DATE":null,"PERIAPSIS":"543.257","BSTAR":"-0.00199930000000","OBJECT_TYPE":"PAYLOAD","SEMIMAJOR_AXIS":"6922.884","ECCENTRICITY":"0.00021560","CENTER_NAME":"EARTH","RA_OF_ASC_NODE":"283.2241","ARG_OF_PERICENTER":"66.0775","TIME_SYSTEM":"UTC","FILE":"3276075","MEAN_MOTION":"15.07204356"},{"REV_AT_EPOCH":"5240","TLE_LINE1":"1 47636U 21012S   22017.94228547 -.00001886  00000-0 -10778-3 0  9996","MEAN_MOTION_DDOT":"0.0000000000000","MEAN_MOTION_DOT":"-0.00001886","EPHEMERIS_TYPE":"0","LAUNCH_DATE":"2021-02-16","MEAN_ELEMENT_THEORY":"SGP4","OBJECT_ID":"2021-012S","PERIOD":"95.593","INCLINATION":"53.0588","ELEMENT_SET_NO":"999","SITE":"AFETR","TLE_LINE2":"2 47636  53.0588 358.1084 0002557 207.2555 152.8300 15.06385672 52404","GP_ID":"194087516","APOAPSIS":"549.028","REF_FRAME":"TEME","MEAN_ANOMALY":"152.8300","RCS_SIZE":"LARGE","CLASSIFICATION_TYPE":"U","OBJECT_NAME":"STARLINK-2013","COUNTRY_CODE":"US","ARG_OF_PERICENTER":"207.2555","RA_OF_ASC_NODE":"358.1084","CENTER_NAME":"EARTH","ECCENTRICITY":"0.00025570","TIME_SYSTEM":"UTC","MEAN_MOTION":"15.06385672","FILE":"3276075","NORAD_CAT_ID":"47636","EPOCH":"2022-01-17T22:36:53.464608","DECAY_DATE":null,"PERIAPSIS":"545.487","SEMIMAJOR_AXIS":"6925.392","OBJECT_TYPE":"PAYLOAD","BSTAR":"-0.00010778000000"},{"TLE_LINE1":"1 47637U 21012T   22017.64740636 -.00003186  00000-0 -19519-3 0  9999","REV_AT_EPOCH":"5237","MEAN_MOTION_DDOT":"0.0000000000000","MEAN_MOTION_DOT":"-0.00003186","LAUNCH_DATE":"2021-02-16","EPHEMERIS_TYPE":"0","MEAN_ELEMENT_THEORY":"SGP4","OBJECT_ID":"2021-012T","ELEMENT_SET_NO":"999","PERIOD":"95.593","INCLINATION":"53.0561","SITE":"AFETR","TLE_LINE2":"2 47637  53.0561 359.4357 0001751  73.8839 286.2343 15.06383481 52371","GP_ID":"194088768","APOAPSIS":"548.477","REF_FRAME":"TEME","MEAN_ANOMALY":"286.2343","RCS_SIZE":"LARGE","CLASSIFICATION_TYPE":"U","OBJECT_NAME":"STARLINK-2014","COUNTRY_CODE":"US","RA_OF_ASC_NODE":"359.4357","ARG_OF_PERICENTER":"73.8839","CENTER_NAME":"EARTH","ECCENTRICITY":"0.00017510","TIME_SYSTEM":"UTC","MEAN_MOTION":"15.06383481","FILE":"3276075","EPOCH":"2022-01-17T15:32:15.909504","NORAD_CAT_ID":"47637","DECAY_DATE":null,"PERIAPSIS":"546.052","SEMIMAJOR_AXIS":"6925.399","OBJECT_TYPE":"PAYLOAD","BSTAR":"-0.00019519000000"},{"DECAY_DATE":null,"EPOCH":"2022-01-17T21:51:07.231104","NORAD_CAT_ID":"47638","SEMIMAJOR_AXIS":"6925.381","OBJECT_TYPE":"PAYLOAD","BSTAR":"-0.00024426000000","PERIAPSIS":"545.078","RA_OF_ASC_NODE":"283.3184","ARG_OF_PERICENTER":"61.5647","CENTER_NAME":"EARTH","ECCENTRICITY":"0.00031310","MEAN_MOTION":"15.06389327","FILE":"3276075","TIME_SYSTEM":"UTC","REF_FRAME":"TEME","MEAN_ANOMALY":"298.5657","RCS_SIZE":"LARGE","CLASSIFICATION_TYPE":"U","APOAPSIS":"549.415","COUNTRY_CODE":"US","OBJECT_NAME":"STARLINK-2015","MEAN_MOTION_DDOT":"0.0000000000000","MEAN_MOTION_DOT":"-0.00003918","MEAN_ELEMENT_THEORY":"SGP4","LAUNCH_DATE":"2021-02-16","EPHEMERIS_TYPE":"0","OBJECT_ID":"2021-012U","REV_AT_EPOCH":"5343","TLE_LINE1":"1 47638U 21012U   22017.91050036 -.00003918  00000-0 -24426-3 0  9994","TLE_LINE2":"2 47638  53.0504 283.3184 0003131  61.5647 298.5657 15.06389327 53434","GP_ID":"194088517","ELEMENT_SET_NO":"999","PERIOD":"95.593","INCLINATION":"53.0504","SITE":"AFETR"}];
